OTTER SDM               
1 66678U 25276N   26190.17264076  .00004363  00000+0  20565-3 0  9992
2 66678  97.4202 263.2859 0004240 282.7766  77.2995 15.20009823 33759
LILIUM-2                
1 66679U 25276P   26191.44234365  .00001520  00000+0  77855-4 0  9999
2 66679  97.4147 264.0201 0004405 290.5971  69.4791 15.18082863 33924
LEMUR-2-DEANANDMAEVE    
1 66680U 25276Q   26190.48196415  .00003920  00000+0  18819-3 0  9997
2 66680  97.4196 263.4591 0004073 280.6485  79.4291 15.19438677 33796
TRANSPORTER-15 OBJECT R 
1 66681U 25276R   26191.18953311  .00011764  00000+0  47762-3 0  9996
2 66681  97.4111 264.8592 0003518 293.0381  67.0486 15.24737849 33963
ION SCV-022             
1 66682U 25276S   26189.75964246  .00000616  00000+0  57538-4 0  9993
2 66682  97.5295 259.6620 0006290  96.3645 263.8294 14.97586485 33307
6GSTARLAB               
1 66683U 25276T   26191.18781335  .00001768  00000+0  88911-4 0  9998
2 66683  97.4238 264.1593 0004199 274.3728  85.7027 15.18518884 33891
AE5RA                   
1 66685U 25276V   26190.61573452  .00009165  00000+0  38836-3 0  9995
2 66685  97.4210 264.3705 0002817 291.5091  68.5845 15.23362845 33863
LEMUR-2-STAS-GORBUK     
1 66686U 25276W   26191.50946469  .00003457  00000+0  16544-3 0  9997
2 66686  97.4241 264.6532 0003441 272.2364  87.8477 15.19628304 33957
LEO EXPRESS 3           
1 66687U 25276X   26190.93700398  .00013165  00000+0  58455-3 0  9997
2 66687  97.4252 264.2979 0005457  83.7702 276.4156 15.21665704 33881
WISDOM A                
1 66688U 25276Y   26191.44034224  .00003287  00000+0  15777-3 0  9997
2 66688  97.4217 264.5211 0003288 275.8034  84.2825 15.19557217 33948
AC1-003                 
1 66689U 25276Z   26191.18910841  .00001343  00000+0  68705-4 0  9998
2 66689  97.4197 264.0486 0001362 316.7620  43.3507 15.18324490 33893
TRANSPORTER-15 OBJECT AA
1 66690U 25276AA  26191.00289567  .00003161  00000+0  15324-3 0  9993
2 66690  97.4177 263.9275 0003145 281.0541  79.0340 15.19238708 33870
TRANSPORTER-15 OBJECT AB
1 66691U 25276AB  26190.77499878  .00005831  00000+0  26368-3 0  9991
2 66691  97.4194 264.1374 0003022 276.1514  83.9377 15.21302443 33866
NUSAT-52                
1 66692U 25276AC  26191.45418383  .00003307  00000+0  15670-3 0  9990
2 66692  97.4202 264.6176 0001741 312.1357  47.9730 15.20008854 33955
AE5RB                   
1 66693U 25276AD  26190.15643735  .00008587  00000+0  36413-3 0  9991
2 66693  97.4162 263.7835 0002186 286.9628  73.1369 15.23361165 33797
YAM-9                   
1 66694U 25276AE  26191.17909350  .00003214  00000+0  17483-3 0  9991
2 66694  97.4206 263.1780 0007699 222.5092 137.5545 15.15147021 33835
IRIDE FM1               
1 66695U 25276AF  26191.17085381  .00003750  00000+0  17174-3 0  9993
2 66695  97.4191 264.6447 0000916 128.9011 231.2307 15.21100829 33931
IRIDE FM2               
1 66696U 25276AG  26191.13602966  .00005382  00000+0  24734-3 0  9997
2 66696  97.4179 264.3510 0001924 288.0430  72.0596 15.20782684 33912
IRIDE FM3               
1 66697U 25276AH  26191.50812976  .00004802  00000+0  21857-3 0  9992
2 66697  97.4177 264.9187 0001436 170.7353 189.3910 15.21172015 33987
IRIDE FM5               
1 66699U 25276AK  26190.43767086  .00005161  00000+0  23937-3 0  9996
2 66699  97.4191 263.6486 0002068 295.8140  64.2882 15.20490482 33808
IRIDE FM6               
1 66700U 25276AL  26191.15242932  .00005892  00000+0  26537-3 0  9997
2 66700  97.4212 264.7309 0001139 175.9844 184.1402 15.21439298 33931
IRIDE FM7               
1 66701U 25276AM  26191.15442600  .00003841  00000+0  17937-3 0  9998
2 66701  97.4212 264.4236 0002882 282.5243  77.5670 15.20413726 33919
IRIDE FM8               
1 66702U 25276AN  26191.16026355  .00003708  00000+0  17360-3 0  9997
2 66702  97.4187 264.3461 0002524 319.6167  40.4880 15.20341030 33910
PELICAN-6               
1 66703U 25276AP  26191.01204796  .00027624  00000+0  91771-3 0  9990
2 66703  97.3764 266.0205 0002626  42.4613 317.6831 15.31167034 34026
FLOCK 4H-2              
1 66705U 25276AR  26191.51480920  .00004118  00000+0  18834-3 0  9994
2 66705  97.4169 264.8808 0001084 159.5314 200.5966 15.21085461 33983
FLOCK 4H-3              
1 66706U 25276AS  26191.43631337  .00004399  00000+0  20618-3 0  9990
2 66706  97.4239 264.7301 0002328 276.9248  83.1722 15.20206879 33950
FLOCK 4H-4              
1 66707U 25276AT  26191.14257329  .00005308  00000+0  24963-3 0  9992
2 66707  97.4219 264.3108 0003034 281.5816  78.5078 15.19995967 33906
