OBJECT_NAME,OBJECT_ID,EPOCH,MEAN_MOTION,ECCENTRICITY,INCLINATION,RA_OF_ASC_NODE,ARG_OF_PERICENTER,MEAN_ANOMALY,EPHEMERIS_TYPE,CLASSIFICATION_TYPE,NORAD_CAT_ID,ELEMENT_SET_NO,REV_AT_EPOCH,BSTAR,MEAN_MOTION_DOT,MEAN_MOTION_DDOT
OTTER SDM,2025-276N,2026-07-09T04:08:36.161664,15.20009823,.00042405,97.4202,263.2859,282.7766,77.2995,0,U,66678,999,3375,.20564658E-3,.4363E-4,0
LILIUM-2,2025-276P,2026-07-10T10:36:58.491360,15.18082863,.00044054,97.4147,264.0201,290.5971,69.4791,0,U,66679,999,3392,.77854947E-4,.152E-4,0
LEMUR-2-DEANANDMAEVE,2025-276Q,2026-07-09T11:34:01.702560,15.19438677,.0004073,97.4196,263.4591,280.6485,79.4291,0,U,66680,999,3379,.1881878E-3,.392E-4,0
TRANSPORTER-15 OBJECT R,2025-276R,2026-07-10T04:32:55.660704,15.24737849,.00035184,97.4111,264.8592,293.0381,67.0486,0,U,66681,999,3396,.47761634E-3,.11764E-3,0
ION SCV-022,2025-276S,2026-07-08T18:13:53.108544,14.97586485,.00062904,97.5295,259.6620,96.3645,263.8294,0,U,66682,999,3330,.57538076E-4,.616E-5,0
6GSTARLAB,2025-276T,2026-07-10T04:30:27.073440,15.18518884,.0004199,97.4238,264.1593,274.3728,85.7027,0,U,66683,999,3389,.88910721E-4,.1768E-4,0
AE5RA,2025-276V,2026-07-09T14:46:39.462528,15.23362845,.00028177,97.4210,264.3705,291.5091,68.5845,0,U,66685,999,3386,.3883637E-3,.9165E-4,0
LEMUR-2-STAS-GORBUK,2025-276W,2026-07-10T12:13:37.749216,15.19628304,.00034406,97.4241,264.6532,272.2364,87.8477,0,U,66686,999,3395,.16544157E-3,.3457E-4,0
LEO EXPRESS 3,2025-276X,2026-07-09T22:29:17.143872,15.21665704,.0005457,97.4252,264.2979,83.7702,276.4156,0,U,66687,999,3388,.58454758E-3,.13165E-3,0
WISDOM A,2025-276Y,2026-07-10T10:34:05.569536,15.19557217,.0003288,97.4217,264.5211,275.8034,84.2825,0,U,66688,999,3394,.15777111E-3,.3287E-4,0
AC1-003,2025-276Z,2026-07-10T04:32:18.966624,15.18324490,.00013627,97.4197,264.0486,316.7620,43.3507,0,U,66689,999,3389,.68704864E-4,.1343E-4,0
TRANSPORTER-15 OBJECT AA,2025-276AA,2026-07-10T00:04:10.185888,15.19238708,.00031453,97.4177,263.9275,281.0541,79.0340,0,U,66690,999,3387,.15324204E-3,.3161E-4,0
TRANSPORTER-15 OBJECT AB,2025-276AB,2026-07-09T18:35:59.894592,15.21302443,.00030223,97.4194,264.1374,276.1514,83.9377,0,U,66691,999,3386,.26367878E-3,.5831E-4,0
NUSAT-52,2025-276AC,2026-07-10T10:54:01.482912,15.20008854,.00017414,97.4202,264.6176,312.1357,47.9730,0,U,66692,999,3395,.15670293E-3,.3307E-4,0
AE5RB,2025-276AD,2026-07-09T03:45:16.187040,15.23361165,.00021865,97.4162,263.7835,286.9628,73.1369,0,U,66693,999,3379,.36413495E-3,.8587E-4,0
YAM-9,2025-276AE,2026-07-10T04:17:53.678400,15.15147021,.00076999,97.4206,263.1780,222.5092,137.5545,0,U,66694,999,3383,.17483101E-3,.3214E-4,0
IRIDE FM1,2025-276AF,2026-07-10T04:06:01.769184,15.21100829,.00009162,97.4191,264.6447,128.9011,231.2307,0,U,66695,999,3393,.17174221E-3,.375E-4,0
IRIDE FM2,2025-276AG,2026-07-10T03:15:52.962624,15.20782684,.00019249,97.4179,264.3510,288.0430,72.0596,0,U,66696,999,3391,.24734051E-3,.5382E-4,0
IRIDE FM3,2025-276AH,2026-07-10T12:11:42.411264,15.21172015,.00014361,97.4177,264.9187,170.7353,189.3910,0,U,66697,999,3398,.2185675E-3,.4802E-4,0
IRIDE FM5,2025-276AK,2026-07-09T10:30:14.762304,15.20490482,.00020688,97.4191,263.6486,295.8140,64.2882,0,U,66699,999,3380,.23937014E-3,.5161E-4,0
IRIDE FM6,2025-276AL,2026-07-10T03:39:29.893248,15.21439298,.00011396,97.4212,264.7309,175.9844,184.1402,0,U,66700,999,3393,.26537089E-3,.5892E-4,0
IRIDE FM7,2025-276AM,2026-07-10T03:42:22.406400,15.20413726,.00028821,97.4212,264.4236,282.5243,77.5670,0,U,66701,999,3391,.17936968E-3,.3841E-4,0
IRIDE FM8,2025-276AN,2026-07-10T03:50:46.770720,15.20341030,.00025244,97.4187,264.3461,319.6167,40.4880,0,U,66702,999,3391,.1735997E-3,.3708E-4,0
PELICAN-6,2025-276AP,2026-07-10T00:17:20.944608,15.31167034,.00026261,97.3764,266.0205,42.4613,317.6831,0,U,66703,999,3402,.91770882E-3,.27624E-3,0
FLOCK 4H-2,2025-276AR,2026-07-10T12:21:19.515744,15.21085461,.00010836,97.4169,264.8808,159.5314,200.5966,0,U,66705,999,3398,.1883398E-3,.4118E-4,0
FLOCK 4H-3,2025-276AS,2026-07-10T10:28:17.475168,15.20206879,.00023282,97.4239,264.7301,276.9248,83.1722,0,U,66706,999,3395,.20617521E-3,.4399E-4,0
FLOCK 4H-4,2025-276AT,2026-07-10T03:25:18.332256,15.19995967,.0003034,97.4219,264.3108,281.5816,78.5078,0,U,66707,999,3390,.24962794E-3,.5308E-4,0
